{"type": "FeatureCollection", "features": [ {"type": "Feature", "properties": {"norad_id": 66849, "name": "STARLINK-36102", "group": "last-30-days", "lat": -11.008643720214078, "lon": 43.07594634393249, "alt_km": 386.56646888422256, "timestamp": "2025-12-23T18:59:30.758492+00:00", "meta": {"OBJECT_NAME": "STARLINK-36102", "OBJECT_ID": "2025-281B", "EPOCH": "2025-12-23T06:00:00.999648", "MEAN_MOTION": 15.62917625, "ECCENTRICITY": 8.277e-05, "INCLINATION": 43.0001, "RA_OF_ASC_NODE": 58.3463, "ARG_OF_PERICENTER": 274.4851, "MEAN_ANOMALY": 262.2008, "EPHEMERIS_TYPE": 0, "CLASSIFICATION_TYPE": "U", "NORAD_CAT_ID": 66849, "ELEMENT_SET_NO": 999, "REV_AT_EPOCH": 307, "BSTAR": -0.024038233, "MEAN_MOTION_DOT": -0.01968984, "MEAN_MOTION_DDOT": 0}, "tle": {"line1": "1 66849U 25281B   25357.25001157 -.01968984  00000+0 -24038-1 0  9998", "line2": "2 66849  43.0001  58.3463 0000827 274.4851 262.2008 15.62917625  3074"}}, "geometry": {"type": "Point", "coordinates": [43.07594634393249, -11.008643720214078]}}, {"type": "Feature", "properties": {"norad_id": 66850, "name": "STARLINK-36105", "group": "last-30-days", "lat": -9.727101459969603, "lon": 44.520925772544764, "alt_km": 386.4842767816572, "timestamp": "2025-12-23T18:59:30.758503+00:00", "meta": {"OBJECT_NAME": "STARLINK-36105", "OBJECT_ID": "2025-281C", "EPOCH": "2025-12-23T06:00:00.999648", "MEAN_MOTION": 15.6291576, "ECCENTRICITY": 7.729e-05, "INCLINATION": 43.0002, "RA_OF_ASC_NODE": 58.3416, "ARG_OF_PERICENTER": 273.6808, "MEAN_ANOMALY": 264.9233, "EPHEMERIS_TYPE": 0, "CLASSIFICATION_TYPE": "U", "NORAD_CAT_ID": 66850, "ELEMENT_SET_NO": 999, "REV_AT_EPOCH": 308, "BSTAR": -0.024001582, "MEAN_MOTION_DOT": -0.01966179, "MEAN_MOTION_DDOT": 0}, "tle": {"line1": "1 66850U 25281C   25357.25001157 -.01966179  00000+0 -24002-1 0  9995", "line2": "2 66850  43.0002  58.3416 0000772 273.6808 264.9233 15.62915760  3085"}}, "geometry": {"type": "Point", "coordinates": [44.520925772544764, -9.727101459969603]}}, {"type": "Feature", "properties": {"norad_id": 66851, "name": "STARLINK-36094", "group": "last-30-days", "lat": -8.442486039811504, "lon": 45.95141075822838, "alt_km": 386.28534997710176, "timestamp": "2025-12-23T18:59:30.758512+00:00", "meta": {"OBJECT_NAME": "STARLINK-36094", "OBJECT_ID": "2025-281D", "EPOCH": "2025-12-23T06:00:00.999648", "MEAN_MOTION": 15.62921516, "ECCENTRICITY": 7.485e-05, "INCLINATION": 43.0004, "RA_OF_ASC_NODE": 58.3368, "ARG_OF_PERICENTER": 280.1161, "MEAN_ANOMALY": 260.4006, "EPHEMERIS_TYPE": 0, "CLASSIFICATION_TYPE": "U", "NORAD_CAT_ID": 66851, "ELEMENT_SET_NO": 999, "REV_AT_EPOCH": 308, "BSTAR": -0.024100979, "MEAN_MOTION_DOT": -0.01973713, "MEAN_MOTION_DDOT": 0}, "tle": {"line1": "1 66851U 25281D   25357.25001157 -.01973713  00000+0 -24101-1 0  9998", "line2": "2 66851  43.0004  58.3368 0000748 280.1161 260.4006 15.62921516  3087"}}, "geometry": {"type": "Point", "coordinates": [45.95141075822838, -8.442486039811504]}}, {"type": "Feature", "properties": {"norad_id": 66852, "name": "STARLINK-35992", "group": "last-30-days", "lat": -7.1472577847478655, "lon": 47.37867118923471, "alt_km": 386.145267813331, "timestamp": "2025-12-23T18:59:30.758522+00:00", "meta": {"OBJECT_NAME": "STARLINK-35992", "OBJECT_ID": "2025-281E", "EPOCH": "2025-12-23T06:00:00.999648", "MEAN_MOTION": 15.62914687, "ECCENTRICITY": 8.113e-05, "INCLINATION": 43.0002, "RA_OF_ASC_NODE": 58.3325, "ARG_OF_PERICENTER": 279.1091, "MEAN_ANOMALY": 263.3262, "EPHEMERIS_TYPE": 0, "CLASSIFICATION_TYPE": "U", "NORAD_CAT_ID": 66852, "ELEMENT_SET_NO": 999, "REV_AT_EPOCH": 308, "BSTAR": -0.02394821, "MEAN_MOTION_DOT": -0.01962286, "MEAN_MOTION_DDOT": 0}, "tle": {"line1": "1 66852U 25281E   25357.25001157 -.01962286  00000+0 -23948-1 0  9990", "line2": "2 66852  43.0002  58.3325 0000811 279.1091 263.3262 15.62914687  3087"}}, "geometry": {"type": "Point", "coordinates": [47.37867118923471, -7.1472577847478655]}}, {"type": "Feature", "properties": {"norad_id": 66853, "name": "STARLINK-35986", "group": "last-30-days", "lat": -5.849919209346583, "lon": 48.794754311594225, "alt_km": 385.9695979101407, "timestamp": "2025-12-23T18:59:30.758531+00:00", "meta": {"OBJECT_NAME": "STARLINK-35986", "OBJECT_ID": "2025-281F", "EPOCH": "2025-12-23T06:00:00.999648", "MEAN_MOTION": 15.6291518, "ECCENTRICITY": 8.506e-05, "INCLINATION": 43, "RA_OF_ASC_NODE": 58.3276, "ARG_OF_PERICENTER": 281.3806, "MEAN_ANOMALY": 262.969, "EPHEMERIS_TYPE": 0, "CLASSIFICATION_TYPE": "U", "NORAD_CAT_ID": 66853, "ELEMENT_SET_NO": 999, "REV_AT_EPOCH": 308, "BSTAR": -0.023925894, "MEAN_MOTION_DOT": -0.01960738, "MEAN_MOTION_DDOT": 0}, "tle": {"line1": "1 66853U 25281F   25357.25001157 -.01960738  00000+0 -23926-1 0  9997", "line2": "2 66853  43.0000  58.3276 0000850 281.3806 262.9690 15.62915180  3082"}}, "geometry": {"type": "Point", "coordinates": [48.794754311594225, -5.849919209346583]}}, {"type": "Feature", "properties": {"norad_id": 66854, "name": "STARLINK-36087", "group": "last-30-days", "lat": -4.547130646536273, "lon": 50.20607222636896, "alt_km": 385.8935953730561, "timestamp": "2025-12-23T18:59:30.758540+00:00", "meta": {"OBJECT_NAME": "STARLINK-36087", "OBJECT_ID": "2025-281G", "EPOCH": "2025-12-23T06:00:00.999648", "MEAN_MOTION": 15.62913484, "ECCENTRICITY": 8.929e-05, "INCLINATION": 43, "RA_OF_ASC_NODE": 58.3224, "ARG_OF_PERICENTER": 277.921, "MEAN_ANOMALY": 268.3472, "EPHEMERIS_TYPE": 0, "CLASSIFICATION_TYPE": "U", "NORAD_CAT_ID": 66854, "ELEMENT_SET_NO": 999, "REV_AT_EPOCH": 308, "BSTAR": -0.023884802, "MEAN_MOTION_DOT": -0.01957688, "MEAN_MOTION_DDOT": 0}, "tle": {"line1": "1 66854U 25281G   25357.25001157 -.01957688  00000+0 -23885-1 0  9992", "line2": "2 66854  43.0000  58.3224 0000892 277.9210 268.3472 15.62913484  3085"}}, "geometry": {"type": "Point", "coordinates": [50.20607222636896, -4.547130646536273]}}, {"type": "Feature", "properties": {"norad_id": 66855, "name": "STARLINK-36090", "group": "last-30-days", "lat": -3.2428022280991646, "lon": 51.61146965120762, "alt_km": 385.8402533571798, "timestamp": "2025-12-23T18:59:30.758549+00:00", "meta": {"OBJECT_NAME": "STARLINK-36090", "OBJECT_ID": "2025-281H", "EPOCH": "2025-12-23T06:00:00.999648", "MEAN_MOTION": 15.62912407, "ECCENTRICITY": 7.81e-05, "INCLINATION": 43.0001, "RA_OF_ASC_NODE": 58.3177, "ARG_OF_PERICENTER": 274.6311, "MEAN_ANOMALY": 273.5538, "EPHEMERIS_TYPE": 0, "CLASSIFICATION_TYPE": "U", "NORAD_CAT_ID": 66855, "ELEMENT_SET_NO": 999, "REV_AT_EPOCH": 295, "BSTAR": -0.023835466, "MEAN_MOTION_DOT": -0.0195398, "MEAN_MOTION_DDOT": 0}, "tle": {"line1": "1 66855U 25281H   25357.25001157 -.01953980  00000+0 -23835-1 0  9999", "line2": "2 66855  43.0001  58.3177 0000781 274.6311 273.5538 15.62912407  2957"}}, "geometry": {"type": "Point", "coordinates": [51.61146965120762, -3.2428022280991646]}}, {"type": "Feature", "properties": {"norad_id": 66856, "name": "STARLINK-36072", "group": "last-30-days", "lat": -1.9401700116995297, "lon": 53.0084220662912, "alt_km": 385.68481328124926, "timestamp": "2025-12-23T18:59:30.758562+00:00", "meta": {"OBJECT_NAME": "STARLINK-36072", "OBJECT_ID": "2025-281J", "EPOCH": "2025-12-23T06:00:00.999648", "MEAN_MOTION": 15.62914465, "ECCENTRICITY": 7.65e-05, "INCLINATION": 43.0002, "RA_OF_ASC_NODE": 58.3121, "ARG_OF_PERICENTER": 277.6424, "MEAN_ANOMALY": 272.4626, "EPHEMERIS_TYPE": 0, "CLASSIFICATION_TYPE": "U", "NORAD_CAT_ID": 66856, "ELEMENT_SET_NO": 999, "REV_AT_EPOCH": 308, "BSTAR": -0.023950051, "MEAN_MOTION_DOT": -0.01962372, "MEAN_MOTION_DDOT": 0}, "tle": {"line1": "1 66856U 25281J   25357.25001157 -.01962372  00000+0 -23950-1 0  9993", "line2": "2 66856  43.0002  58.3121 0000765 277.6424 272.4626 15.62914465  3085"}}, "geometry": {"type": "Point", "coordinates": [53.0084220662912, -1.9401700116995297]}}, {"type": "Feature", "properties": {"norad_id": 66857, "name": "STARLINK-36083", "group": "last-30-days", "lat": -0.6326656109300371, "lon": 54.408038420708934, "alt_km": 385.5572442651328, "timestamp": "2025-12-23T18:59:30.758574+00:00", "meta": {"OBJECT_NAME": "STARLINK-36083", "OBJECT_ID": "2025-281K", "EPOCH": "2025-12-23T06:00:00.999648", "MEAN_MOTION": 15.62911573, "ECCENTRICITY": 7.259e-05, "INCLINATION": 42.9999, "RA_OF_ASC_NODE": 58.3074, "ARG_OF_PERICENTER": 277.1574, "MEAN_ANOMALY": 274.8658, "EPHEMERIS_TYPE": 0, "CLASSIFICATION_TYPE": "U", "NORAD_CAT_ID": 66857, "ELEMENT_SET_NO": 999, "REV_AT_EPOCH": 308, "BSTAR": -0.023887052, "MEAN_MOTION_DOT": -0.01957607, "MEAN_MOTION_DDOT": 0}, "tle": {"line1": "1 66857U 25281K   25357.25001157 -.01957607  00000+0 -23887-1 0  9998", "line2": "2 66857  42.9999  58.3074 0000725 277.1574 274.8658 15.62911573  3081"}}, "geometry": {"type": "Point", "coordinates": [54.408038420708934, -0.6326656109300371]}}, {"type": "Feature", "properties": {"norad_id": 66858, "name": "STARLINK-35118", "group": "last-30-days", "lat": 0.6742508672558443, "lon": 55.80565377985936, "alt_km": 385.390882573166, "timestamp": "2025-12-23T18:59:30.758583+00:00", "meta": {"OBJECT_NAME": "STARLINK-35118", "OBJECT_ID": "2025-281L", "EPOCH": "2025-12-23T06:00:00.999648", "MEAN_MOTION": 15.62914306, "ECCENTRICITY": 8.163e-05, "INCLINATION": 43.0001, "RA_OF_ASC_NODE": 58.3024, "ARG_OF_PERICENTER": 278.5062, "MEAN_ANOMALY": 275.4326, "EPHEMERIS_TYPE": 0, "CLASSIFICATION_TYPE": "U", "NORAD_CAT_ID": 66858, "ELEMENT_SET_NO": 999, "REV_AT_EPOCH": 286, "BSTAR": -0.023939909, "MEAN_MOTION_DOT": -0.01961665, "MEAN_MOTION_DDOT": 0}, "tle": {"line1": "1 66858U 25281L   25357.25001157 -.01961665  00000+0 -23940-1 0  9998", "line2": "2 66858  43.0001  58.3024 0000816 278.5062 275.4326 15.62914306  2862"}}, "geometry": {"type": "Point", "coordinates": [55.80565377985936, 0.6742508672558443]}}]}